CCSDS_OEM_VERS = 2.0  
CREATION_DATE  = 2026-05-08T16:27:14
ORIGINATOR     = ESOC/OPS-GFA                            
 
 



META_START
OBJECT_NAME          = LISA                                    
OBJECT_ID            = -1000                                   
CENTER_NAME          = SUN                     
REF_FRAME            = EME2000 
TIME_SYSTEM          = TCB
START_TIME           = 2036-12-23T00:00:30.346418            
STOP_TIME            = 2047-09-08T07:55:59.438017            
INTERPOLATION        = HERMITE                                 
INTERPOLATION_DEGREE = 7                                       
META_STOP

2043-06-21T07:29:19.280435    -5.82219512188848108e+07   -1.27173742142994195e+08   -5.45201802080931440e+07    2.74243178145537776e+01   -1.03706119868917543e+01   -4.73809582357042736e+00    2.28414002812997616e-06    4.98884658659037836e-06    2.13874945966346810e-06
2043-06-22T03:48:18.473465    -5.62101193259542435e+07   -1.27918869603291348e+08   -5.48609878497866541e+07    2.75885102194688052e+01   -1.00046215374392915e+01   -4.58116279588811004e+00    2.20563803683118032e-06    5.01903430919665350e-06    2.15252937426688968e-06
2043-06-23T00:07:17.666494    -5.41864889375879467e+07   -1.28637148993796065e+08   -5.51902810733733177e+07    2.77469430336729985e+01   -9.63646099978878468e+00   -4.42323812249974146e+00    2.12664596490614100e-06    5.04818675914107942e-06    2.16586560934089599e-06
2043-06-23T20:26:16.859523    -5.21514826036116779e+07   -1.29328424406555042e+08   -5.55079885554640889e+07    2.78995809933143377e+01   -9.26620634281505140e+00   -4.26435436710459115e+00    2.04717970006765137e-06    5.07629713820684756e-06    2.17875508039307824e-06
2043-06-24T16:45:16.052553    -5.01055254107386321e+07   -1.29992545497649878e+08   -5.58140413580816537e+07    2.80463900010741014e+01   -8.89393402503671027e+00   -4.10454431576691015e+00    1.96725525312446555e-06    5.10335885522463362e-06    2.19119479129818285e-06
2043-06-25T13:04:15.245582    -4.80490448967443258e+07   -1.30629367507965133e+08   -5.61083729384217039e+07    2.81873371350476383e+01   -8.51972097951901652e+00   -3.94384097047526438e+00    1.88688875437050593e-06    5.12936552421969351e-06    2.20318183343363173e-06
2043-06-26T09:23:14.438611    -4.59824709639151767e+07   -1.31238751290513173e+08   -5.63909191614573002e+07    2.83223906573029325e+01   -8.14364459904251703e+00   -3.78227754282041584e+00    1.80609644839406957e-06    5.15431095901005723e-06    2.21471338330766280e-06
2043-06-27T05:42:13.631641    -4.39062357917436212e+07   -1.31820563349588618e+08   -5.66616183176676854e+07    2.84515200220018230e+01   -7.76578272179611773e+00   -3.61988744790161254e+00    1.72489468729310950e-06    5.17818916424111630e-06    2.22578669867442051e-06
2043-06-28T02:01:12.824670    -4.18207737488429472e+07   -1.32374675897024825e+08   -5.69204111481724977e+07    2.85746958829683884e+01   -7.38621361785325981e+00   -3.45670429857108585e+00    1.64329992235404171e-06    5.20099432295516962e-06    2.23639911317762953e-06
2043-06-28T22:20:12.017699    -3.97265213040535599e+07   -1.32900966930824488e+08   -5.71672408795527890e+07    2.86918901005893865e+01   -7.00501597668986431e+00   -3.29276190012668124e+00    1.56132869411841530e-06    5.22272078055819258e-06    2.24654802946404240e-06
2043-06-29T18:39:11.210728    -3.76239169367152229e+07   -1.33399320341437563e+08   -5.74020532706398591e+07    2.88030757479312598e+01   -6.62226889600268898e+00   -3.12809424556233884e+00    1.47899762085825549e-06    5.24336302522396279e-06    2.25623091078410665e-06
2043-06-30T14:54:56.942145    -3.55189936729416922e+07   -1.33868418838835403e+08   -5.76242233299163729e+07    2.89079569673448269e+01   -6.23907002224346918e+00   -2.96317377854977870e+00    1.39654274881436643e-06    5.26286592045380307e-06    2.26542174623692639e-06
2043-07-01T11:10:42.673561    -3.34066394388670698e+07   -1.34309513705302685e+08   -5.78343391138089597e+07    2.90068115203161874e+01   -5.85448816675138151e+00   -2.79759994272202306e+00    1.31376343335927161e-06    5.28128033965403955e-06    2.27414437830674642e-06
2043-07-02T07:26:28.404978    -3.12872946907021515e+07   -1.34722506986208498e+08   -5.80323542216470689e+07    2.90996163543596076e+01   -5.46860289919223597e+00   -2.63140697071446850e+00    1.23067653090577459e-06    5.29860164832247266e-06    2.28239664672862988e-06
2043-07-03T03:42:14.136394    -2.91614015376652107e+07   -1.35107306486738294e+08   -5.82182247308942676e+07    2.91863496497483261e+01   -5.08149412127273337e+00   -2.46462925017116952e+00    1.14729898431933156e-06    5.31482538110391568e-06    2.29017646350746842e-06
2043-07-03T23:57:59.867811    -2.70294036386697814e+07   -1.35463825844892263e+08   -5.83919092297016382e+07    2.92669908257926217e+01   -4.69324205360866920e+00   -2.29730131812651983e+00    1.06364782201395626e-06    5.32994726279498120e-06    2.29748182209633978e-06
2043-07-04T20:13:45.599228    -2.48917461047511101e+07   -1.35791984579967082e+08   -5.85533688387919366e+07    2.93415205470307470e+01   -4.30392722120621762e+00   -2.12945785478054717e+00    9.79740156505520162e-07    5.34396322546130929e-06    2.30431080488543437e-06
2043-07-05T16:29:31.330644    -2.27488754058617279e+07   -1.36091708121640384e+08   -5.87025672249041051e+07    2.94099207292945302e+01   -3.91363043783622455e+00   -1.96113367678946271e+00    8.95593182422089319e-07    5.35686942167307720e-06    2.31066158900401077e-06
2043-07-06T12:45:17.062061    -2.06012392806855775e+07   -1.36362927824772000e+08   -5.88394706080247611e+07    2.94721745456099917e+01   -3.52243278958484396e+00   -1.79236373019461848e+00    8.11224173969696848e-07    5.36866223385063417e-06    2.31653245043198040e-06
2043-07-07T09:01:02.793477    -1.84492866481205150e+07   -1.36605580975034684e+08   -5.89640477646331936e+07    2.95282664318933143e+01   -3.13041561786389000e+00   -1.62318308311302095e+00    7.26650481856013730e-07    5.37933827973386590e-06    2.32192176642678954e-06
2043-07-08T05:16:48.524894    -1.62934675190783925e+07   -1.36819610790488511e+08   -5.90762700291865543e+07    2.95781820924024927e+01   -2.73766050216433721e+00   -1.45362691831254232e+00    6.41889529666798919e-07    5.38889441394703719e-06    2.32682801625371293e-06
2043-07-09T01:32:34.256311    -1.41342329072528407e+07   -1.37004966424211711e+08   -5.91761112960717455e+07    2.96219085049050790e+01   -2.34424924283621028e+00   -1.28373052579498270e+00    5.56958809708139555e-07    5.39732772572815999e-06    2.33124978024894083e-06
2043-07-09T21:48:19.987728    -1.19720347375038639e+07   -1.37161602973101616e+08   -5.92635480242506713e+07    2.96594339255222792e+01   -1.95026384417842369e+00   -1.11352929551013657e+00    4.71875878290649129e-07    5.40463553269535860e-06    2.33518573716100607e-06
2043-07-10T18:04:05.719144    -9.80732575050907210e+06   -1.37289481497959435e+08   -5.93385592468254119e+07    2.96907478932098421e+01   -1.55578649812174330e+00   -9.43058710324005123e-01    3.86658350479084263e-07    5.41081537078761146e-06    2.33863465982896106e-06
2043-07-11T14:19:51.450561    -7.64055940233122557e+06   -1.37388569059971601e+08   -5.94011265877499431e+07    2.97158412338360094e+01   -1.16089956878842582e+00   -7.72354339364292208e-01    3.01323894304255126e-07    5.41586498032771759e-06    2.34159540917598160e-06
2043-07-12T10:35:37.181977    -5.47218975755124539e+06   -1.37458838778701842e+08   -5.94512342879149541e+07    2.97347060638169296e+01   -7.65685578211736662e-01   -6.01451831866360642e-01    2.15890224422769657e-07    5.41978228817964837e-06    2.34406692650512706e-06
2043-07-13T06:51:22.913394    -3.30267137461705506e+06   -1.37500269916706830e+08   -5.94888692428324446e+07    2.97473357932698512e+01   -3.70227193498899432e-01   -4.30386911642776759e-01    1.30375095214817483e-07    5.42256538592733811e-06    2.34604822406691612e-06
2043-07-14T03:00:52.710941    -1.14364470457888674e+06   -1.37512856881755561e+08   -5.95139233272124231e+07    2.97537082079491171e+01    2.33536576745683178e-02   -2.60077882694401685e-01    4.52375562840666687e-08    5.42420747947002304e-06    2.34753219214082671e-06
2043-07-14T23:10:22.508489     1.01562018619999662e+06   -1.37496878442191422e+08   -5.95266146456397772e+07    2.97539004565743674e+01    4.17012850892327869e-01   -8.96788180011520719e-02   -3.99453386723457690e-08    5.42472428849261396e-06    2.34852947590686135e-06
2043-07-15T19:19:52.306036     3.17467471812635195e+06   -1.37452331900862992e+08   -5.95269379569055364e+07    2.97479098868838143e+01    8.10668687619688910e-01    8.07749420883894231e-02   -1.25155965909838155e-07    5.42411482602992025e-06    2.34903948798138515e-06
2043-07-16T15:29:22.103584     5.33307013639086857e+06   -1.37379220441510737e+08   -5.95148905638431460e+07    2.97357351270593178e+01    1.20423940431147014e+00    2.51248017450212080e-01   -2.10376661507485675e-07    5.42237829106929755e-06    2.34906172115436968e-06
2043-07-17T11:38:51.901131     7.49035762836353481e+06   -1.37277553177002698e+08   -5.94904723352733925e+07    2.97173760884381473e+01    1.59764318664597038e+00    4.21704994324633820e-01   -2.95589726938619047e-07    5.41951408820206799e-06    2.34859575693709045e-06
2043-07-18T07:48:21.698679     9.64608842962141708e+06   -1.37147345175459087e+08   -5.94536857182754353e+07    2.96928339678330282e+01    1.99079818504529360e+00    5.92110432015816590e-01   -3.80777434283368210e-07    5.41552184352584971e-06    2.34764127248502248e-06
2043-07-19T03:57:51.496226     1.17998139211452678e+07   -1.36988617468842238e+08   -5.94045357427875772e+07    2.96621112494868271e+01    2.38362253121387901e+00    7.62428870034792761e-01   -4.65922031084961681e-07    5.41040141680528350e-06    2.34619804589884307e-06
